NORAD_CAT_ID,OBJECT_NAME,OBJECT_TYPE,EPOCH,MEAN_MOTION,ECCENTRICITY,INCLINATION,RA_OF_ASC_NODE,ARG_OF_PERICENTER,MEAN_ANOMALY,BSTAR,MEAN_MOTION_DOT,MEAN_MOTION_DDOT,TLE_LINE0,TLE_LINE1,TLE_LINE2,SEMIMAJOR_AXIS,PERIOD,APOGEE,PERIGEE,DECAYED
53142.0,STARLINK-4101,PAYLOAD,2023-03-21 04:10:17,15.08865211,0.000102,53.2165,2.7007,87.0672,273.0437,0.0017976,0.00028456,0.0,0 STARLINK-4101,1 53142U 22083L   23080.17381287  .00028456  00000-0  17976-2 0  9997,2 53142  53.2165   2.7007 0001020  87.0672 273.0437 15.08865211 38125,6917.803,95.436,540.374,538.963,0.0
53142.0,STARLINK-4101,PAYLOAD,2023-03-22 00:50:18,15.08849109,0.000135,53.2168,358.8352,74.6606,285.4535,0.0015568,0.00024581,0.0,0 STARLINK-4101,1 53142U 22083L   23081.03494064  .00024581  00000-0  15568-2 0  9991,2 53142  53.2168 358.8352 0001350  74.6606 285.4535 15.08849109 38259,6917.853,95.437,540.651,538.784,0.0
53142.0,STARLINK-4101,PAYLOAD,2023-03-22 04:01:05,15.08856013,0.0001377,53.2168,358.2406,73.4522,286.6622,0.0017122,0.00027079,0.0,0 STARLINK-4101,1 53142U 22083L   23081.16741952  .00027079  00000-0  17122-2 0  9999,2 53142  53.2168 358.2406 0001377  73.4522 286.6622 15.08856013 37651,6917.831,95.437,540.649,538.744,0.0
53142.0,STARLINK-4101,PAYLOAD,2023-03-23 03:51:51,15.08884714,0.0001336,53.2167,353.7796,75.3557,284.7583,0.0017319,0.00027417,0.0,0 STARLINK-4101,1 53142U 22083L   23082.16100770  .00027417  00000-0  17319-2 0  9991,2 53142  53.2167 353.7796 0001336  75.3557 284.7583 15.08884714 38426,6917.744,95.435,540.533,538.685,0.0
53142.0,STARLINK-4101,PAYLOAD,2023-03-23 21:21:06,15.08852089,0.000145,53.2166,350.5088,96.5907,263.525,0.0023246,0.00036914,0.0,0 STARLINK-4101,1 53142U 22083L   23082.88965577  .00036914  00000-0  23246-2 0  9992,2 53142  53.2166 350.5088 0001450  96.5907 263.5250 15.08852089 37914,6917.843,95.437,540.712,538.705,0.0
53142.0,STARLINK-4101,PAYLOAD,2023-03-24 03:42:38,15.08924971,0.0001373,53.2163,349.3186,63.0301,297.0831,0.0072431,0.00117181,0.0,0 STARLINK-4101,1 53142U 22083L   23083.15461209  .00117181  00000-0  72431-2 0  9992,2 53142  53.2163 349.3186 0001373  63.0301 297.0831 15.08924971 38577,6917.621,95.432,540.435,538.536,0.0
53142.0,STARLINK-4101,PAYLOAD,2023-03-24 21:11:51,15.08886767,0.000124,53.216,346.0453,74.9747,285.1382,0.0018343,0.00029063,0.0,0 STARLINK-4101,1 53142U 22083L   23083.88324008  .00029063  00000-0  18343-2 0  9990,2 53142  53.2160 346.0453 0001240  74.9747 285.1382 15.08886767 38684,6917.737,95.435,540.46,538.745,0.0
53142.0,STARLINK-4101,PAYLOAD,2023-03-25 03:33:23,15.08916233,0.0001214,53.2158,344.8575,72.5603,287.5522,0.002698,0.00043003,0.0,0 STARLINK-4101,1 53142U 22083L   23084.14818856  .00043003  00000-0  26980-2 0  9995,2 53142  53.2158 344.8575 0001214  72.5603 287.5522 15.08916233 38727,6917.647,95.433,540.352,538.673,0.0
53142.0,STARLINK-4101,PAYLOAD,2023-03-25 21:02:40,15.08800717,0.0001348,53.2159,341.586,113.0976,247.0159,0.00047759,7.313e-05,0.0,0 STARLINK-4101,1 53142U 22083L   23084.87685396  .00007313  00000-0  47759-3 0  9998,2 53142  53.2159 341.5860 0001348 113.0976 247.0159 15.08800717 38839,6918.0,95.44,540.798,538.933,0.0
53142.0,STARLINK-4101,PAYLOAD,2023-03-25 22:38:03,15.08789601,0.0001142,53.2157,341.2883,59.0139,301.0966,0.00069927,0.00010843,0.0,0 STARLINK-4101,1 53142U 22083L   23084.94309939  .00010843  00000-0  69927-3 0  9995,2 53142  53.2157 341.2883 0001142  59.0139 301.0966 15.08789601 38229,6918.034,95.441,540.689,539.109,0.0
53142.0,STARLINK-4101,PAYLOAD,2023-03-26 03:24:13,15.08797718,0.0001237,53.2154,340.397,97.0849,263.0284,-0.00018193,-3.179e-05,0.0,0 STARLINK-4101,1 53142U 22083L   23085.14182425 -.00003179  00000-0 -18193-3 0  9992,2 53142  53.2154 340.3970 0001237  97.0849 263.0284 15.08797718 38877,6918.01,95.44,540.73,539.019,0.0
53142.0,STARLINK-4101,PAYLOAD,2023-03-26 20:53:29,15.0882945,0.0001092,53.2155,337.126,92.687,267.4248,0.0014142,0.00022284,0.0,0 STARLINK-4101,1 53142U 22083L   23085.87047796  .00022284  00000-0  14142-2 0  9998,2 53142  53.2155 337.1260 0001092  92.6870 267.4248 15.08829450 38987,6917.913,95.438,540.533,539.022,0.0
53142.0,STARLINK-4101,PAYLOAD,2023-03-26 22:28:52,15.08837579,0.0001102,53.2153,336.8295,89.1944,270.9174,0.0015772,0.00024901,0.0,0 STARLINK-4101,1 53142U 22083L   23085.93671791  .00024901  00000-0  15772-2 0  9991,2 53142  53.2153 336.8295 0001102  89.1944 270.9174 15.08837579 38375,6917.888,95.438,540.515,538.99,0.0
53142.0,STARLINK-4101,PAYLOAD,2023-03-27 00:04:15,15.0884378,0.0001113,53.2153,336.5324,92.6742,267.4377,0.0016806,0.00026563,0.0,0 STARLINK-4101,1 53142U 22083L   23086.00295719  .00026563  00000-0  16806-2 0  9997,2 53142  53.2153 336.5324 0001113  92.6742 267.4377 15.08843780 39000,6917.869,95.437,540.504,538.964,0.0
53142.0,STARLINK-4101,PAYLOAD,2023-03-27 20:44:15,15.08869072,0.0001063,53.2148,332.666,92.5223,267.5891,0.0013374,0.00021078,0.0,0 STARLINK-4101,1 53142U 22083L   23086.86406904  .00021078  00000-0  13374-2 0  9994,2 53142  53.2148 332.6660 0001063  92.5223 267.5891 15.08869072 39139,6917.792,95.436,540.392,538.921,0.0
53142.0,STARLINK-4101,PAYLOAD,2023-03-27 22:19:38,15.08871246,0.000106,53.2149,332.3687,92.0118,268.0995,0.0013704,0.00021608,0.0,0 STARLINK-4101,1 53142U 22083L   23086.93030779  .00021608  00000-0  13704-2 0  9991,2 53142  53.2149 332.3687 0001060  92.0118 268.0995 15.08871246 38520,6917.785,95.436,540.383,538.917,0.0
53142.0,STARLINK-4101,PAYLOAD,2023-03-27 23:55:01,15.08874604,0.0001068,53.2154,332.0716,91.7924,268.319,0.0014412,0.00022745,0.0,0 STARLINK-4101,1 53142U 22083L   23086.99654630  .00022745  00000-0  14412-2 0  9995,2 53142  53.2154 332.0716 0001068  91.7924 268.3190 15.08874604 38537,6917.775,95.435,540.378,538.901,0.0
53142.0,STARLINK-4101,PAYLOAD,2023-03-28 22:10:24,15.08863623,0.0001124,53.216,327.9089,95.604,264.508,0.00065165,0.00010105,0.0,0 STARLINK-4101,1 53142U 22083L   23087.92390009  .00010105  00000-0  65165-3 0  9995,2 53142  53.2160 327.9089 0001124  95.6040 264.5080 15.08863623 39294,6917.808,95.436,540.451,538.896,0.0
53142.0,STARLINK-4101,PAYLOAD,2023-03-29 20:25:49,15.08845104,0.0001119,53.2157,323.7438,99.0068,261.1051,0.0011101,0.00017426,0.0,0 STARLINK-4101,1 53142U 22083L   23088.85126422  .00017426  00000-0  11101-2 0  9997,2 53142  53.2157 323.7438 0001119  99.0068 261.1051 15.08845104 38816,6917.865,95.437,540.504,538.956,0.0
53142.0,STARLINK-4101,PAYLOAD,2023-03-29 23:36:35,15.08843391,0.000111,53.2158,323.149,95.6138,264.498,0.00096479,0.00015101,0.0,0 STARLINK-4101,1 53142U 22083L   23088.98374497  .00015101  00000-0  96479-3 0  9998,2 53142  53.2158 323.1490 0001110  95.6138 264.4980 15.08843391 39454,6917.87,95.437,540.503,538.967,0.0
53142.0,STARLINK-4101,PAYLOAD,2023-03-30 21:51:58,15.08884061,0.0001258,53.2163,318.9883,76.0978,284.0154,0.0013781,0.00021739,0.0,0 STARLINK-4101,1 53142U 22083L   23089.91109052  .00021739  00000-0  13781-2 0  9993,2 53142  53.2163 318.9883 0001258  76.0978 284.0154 15.08884061 38972,6917.746,95.435,540.481,538.74,0.0
53142.0,STARLINK-4101,PAYLOAD,2023-03-31 01:02:44,15.08893908,0.0001327,53.216,318.3924,75.6419,284.472,0.0015079,0.00023827,0.0,0 STARLINK-4101,1 53142U 22083L   23090.04356536  .00023827  00000-0  15079-2 0  9992,2 53142  53.2160 318.3924 0001327  75.6419 284.4720 15.08893908 39616,6917.716,95.434,540.499,538.663,0.0
53142.0,STARLINK-4101,PAYLOAD,2023-03-31 20:07:22,15.08849589,0.0001371,53.216,314.8253,76.043,284.0715,0.00037949,5.758e-05,0.0,0 STARLINK-4101,1 53142U 22083L   23090.83845208  .00005758  00000-0  37949-3 0  9992,2 53142  53.2160 314.8253 0001371  76.0430 284.0715 15.08849589 39738,6917.851,95.437,540.665,538.768,0.0
53142.0,STARLINK-4101,PAYLOAD,2023-04-01 00:53:31,15.08842913,0.0001302,53.2158,313.9331,103.0679,257.0459,0.0014727,0.0002323,0.0,0 STARLINK-4101,1 53142U 22083L   23091.03717395  .00023230  00000-0  14727-2 0  9993,2 53142  53.2158 313.9331 0001302 103.0679 257.0459 15.08842913 39146,6917.871,95.437,540.637,538.836,0.0
53142.0,STARLINK-4101,PAYLOAD,2023-04-01 21:33:34,15.08818581,0.0001185,53.2149,310.0671,94.0671,266.0457,0.00089837,0.0001403,0.0,0 STARLINK-4101,1 53142U 22083L   23091.89831184  .00014030  00000-0  89837-3 0  9993,2 53142  53.2149 310.0671 0001185  94.0671 266.0457 15.08818581 39895,6917.946,95.439,540.631,538.991,0.0
53142.0,STARLINK-4101,PAYLOAD,2023-04-02 13:27:25,15.088421,0.0001169,53.2155,307.0926,92.2774,267.8352,0.0010137,0.00015883,0.0,0 STARLINK-4101,1 53142U 22083L   23092.56071436  .00015883  00000-0  10137-2 0  9997,2 53142  53.2155 307.0926 0001169  92.2774 267.8352 15.08842100 39377,6917.874,95.437,540.548,538.93,0.0
53142.0,STARLINK-4101,PAYLOAD,2023-04-02 21:24:21,15.0885679,0.0001186,53.2157,305.6066,96.6535,263.4592,0.0010802,0.00016953,0.0,0 STARLINK-4101,1 53142U 22083L   23092.89191042  .00016953  00000-0  10802-2 0  9997,2 53142  53.2157 305.6066 0001186  96.6535 263.4592 15.08856790 39424,6917.829,95.436,540.515,538.874,0.0
53142.0,STARLINK-4101,PAYLOAD,2023-04-03 00:35:07,15.08863287,0.0001156,53.2151,305.0111,93.4738,266.6387,0.0011078,0.00017398,0.0,0 STARLINK-4101,1 53142U 22083L   23093.02438797  .00017398  00000-0  11078-2 0  9994,2 53142  53.2151 305.0111 0001156  93.4738 266.6387 15.08863287 40068,6917.809,95.436,540.474,538.875,0.0
53142.0,STARLINK-4101,PAYLOAD,2023-04-03 13:18:12,15.08849888,0.0001524,53.215,302.6312,90.2453,269.8714,0.00033628,5.069e-05,0.0,0 STARLINK-4101,1 53142U 22083L   23093.55431007  .00005069  00000-0  33628-3 0  9997,2 53142  53.2150 302.6312 0001524  90.2453 269.8714 15.08849888 40140,6917.85,95.437,540.769,538.661,0.0
53142.0,STARLINK-4101,PAYLOAD,2023-04-03 21:15:08,15.08845521,0.0001298,53.214,301.143,75.1374,284.9761,0.00030177,4.519e-05,0.0,0 STARLINK-4101,1 53142U 22083L   23093.88551129  .00004519  00000-0  30177-3 0  9996,2 53142  53.2140 301.1430 0001298  75.1374 284.9761 15.08845521 39571,6917.864,95.437,540.626,538.831,0.0
